start=new Date('2023-01-13T00:00:00.000Z').valueOf();
sats=[{"EPHEMERIS_TYPE":"0","RCS_SIZE":"LARGE","TLE_LINE1":"1 51141U 22005AP  23012.85320108  .00003073  00000-0  21112-3 0  9999","RA_OF_ASC_NODE":"69.9201","BSTAR":"0.00021112000000","DECAY_DATE":null,"TLE_LINE2":"2 51141  53.2155  69.9201 0002283  67.8307 292.2927 15.08838166 54859","APOAPSIS":"541.330","PERIOD":"95.438","MEAN_ANOMALY":"292.2927","MEAN_MOTION_DDOT":"0.0000000000000","MEAN_MOTION_DOT":"0.00003073","REF_FRAME":"TEME","ELEMENT_SET_NO":"999","SITE":"AFETR","GP_ID":"222891015","SEMIMAJOR_AXIS":"6917.886","MEAN_MOTION":"15.08838166","PERIAPSIS":"538.172","CENTER_NAME":"EARTH","OBJECT_TYPE":"PAYLOAD","NORAD_CAT_ID":"51141","FILE":"3742227","OBJECT_NAME":"STARLINK-3179","COUNTRY_CODE":"US","ARG_OF_PERICENTER":"67.8307","CLASSIFICATION_TYPE":"U","LAUNCH_DATE":"2022-01-19","REV_AT_EPOCH":"5485","INCLINATION":"53.2155","TIME_SYSTEM":"UTC","ECCENTRICITY":"0.00022830","EPOCH":"2023-01-12T20:28:36.573312","MEAN_ELEMENT_THEORY":"SGP4","OBJECT_ID":"2022-005AP"},{"OBJECT_ID":"2022-005AQ","EPOCH":"2023-01-12T23:31:27.690240","MEAN_ELEMENT_THEORY":"SGP4","ECCENTRICITY":"0.00026220","TIME_SYSTEM":"UTC","LAUNCH_DATE":"2022-01-19","REV_AT_EPOCH":"5615","INCLINATION":"53.2150","CLASSIFICATION_TYPE":"U","OBJECT_NAME":"STARLINK-3369","ARG_OF_PERICENTER":"28.7758","COUNTRY_CODE":"US","CENTER_NAME":"EARTH","NORAD_CAT_ID":"51142","FILE":"3742003","OBJECT_TYPE":"PAYLOAD","PERIAPSIS":"537.993","MEAN_MOTION":"15.08820044","SEMIMAJOR_AXIS":"6917.941","GP_ID":"222861819","ELEMENT_SET_NO":"999","SITE":"AFETR","MEAN_MOTION_DOT":"-0.00007532","REF_FRAME":"TEME","PERIOD":"95.439","APOAPSIS":"541.620","MEAN_ANOMALY":"331.3379","MEAN_MOTION_DDOT":"0.0000000000000","TLE_LINE2":"2 51142  53.2150  59.3543 0002622  28.7758 331.3379 15.08820044 56157","BSTAR":"-0.00045581000000","DECAY_DATE":null,"RA_OF_ASC_NODE":"59.3543","TLE_LINE1":"1 51142U 22005AQ  23012.98018160 -.00007532  00000-0 -45581-3 0  9998","RCS_SIZE":"LARGE","EPHEMERIS_TYPE":"0"},{"CLASSIFICATION_TYPE":"U","LAUNCH_DATE":"2022-01-19","REV_AT_EPOCH":"5583","INCLINATION":"53.2158","TIME_SYSTEM":"UTC","ECCENTRICITY":"0.00024280","EPOCH":"2023-01-12T23:16:49.620000","MEAN_ELEMENT_THEORY":"SGP4","OBJECT_ID":"2022-005AR","GP_ID":"222862148","SEMIMAJOR_AXIS":"6917.829","MEAN_MOTION":"15.08856766","PERIAPSIS":"538.014","CENTER_NAME":"EARTH","OBJECT_TYPE":"PAYLOAD","NORAD_CAT_ID":"51143","FILE":"3742003","OBJECT_NAME":"STARLINK-3184","COUNTRY_CODE":"US","ARG_OF_PERICENTER":"15.8649","TLE_LINE2":"2 51143  53.2158  79.3989 0002428  15.8649 344.2419 15.08856766 55834","MEAN_ANOMALY":"344.2419","APOAPSIS":"541.374","PERIOD":"95.436","MEAN_MOTION_DDOT":"0.0000000000000","MEAN_MOTION_DOT":"-0.00010188","REF_FRAME":"TEME","ELEMENT_SET_NO":"999","SITE":"AFETR","EPHEMERIS_TYPE":"0","RCS_SIZE":"LARGE","TLE_LINE1":"1 51143U 22005AR  23012.97001875 -.00010188  00000-0 -62255-3 0  9991","RA_OF_ASC_NODE":"79.3989","BSTAR":"-0.00062255000000","DECAY_DATE":null},{"EPOCH":"2023-01-12T20:33:53.190432","MEAN_ELEMENT_THEORY":"SGP4","OBJECT_ID":"2022-005AS","ECCENTRICITY":"0.00034150","TIME_SYSTEM":"UTC","CLASSIFICATION_TYPE":"U","REV_AT_EPOCH":"5485","LAUNCH_DATE":"2022-01-19","INCLINATION":"53.2161","COUNTRY_CODE":"US","ARG_OF_PERICENTER":"18.1013","OBJECT_NAME":"STARLINK-3185","OBJECT_TYPE":"PAYLOAD","FILE":"3742227","NORAD_CAT_ID":"51144","CENTER_NAME":"EARTH","SEMIMAJOR_AXIS":"6917.905","MEAN_MOTION":"15.08831794","PERIAPSIS":"537.408","GP_ID":"222891267","SITE":"AFETR","ELEMENT_SET_NO":"999","REF_FRAME":"TEME","MEAN_MOTION_DOT":"-0.00002542","MEAN_MOTION_DDOT":"0.0000000000000","APOAPSIS":"542.133","PERIOD":"95.438","MEAN_ANOMALY":"342.0101","TLE_LINE2":"2 51144  53.2161  69.9169 0003415  18.1013 342.0101 15.08831794 54851","DECAY_DATE":null,"BSTAR":"-0.00014162000000","RA_OF_ASC_NODE":"69.9169","TLE_LINE1":"1 51144U 22005AS  23012.85686563 -.00002542  00000-0 -14162-3 0  9991","EPHEMERIS_TYPE":"0","RCS_SIZE":"LARGE"},{"ELEMENT_SET_NO":"999","SITE":"AFETR","MEAN_MOTION_DOT":"0.00004576","REF_FRAME":"TEME","PERIOD":"95.438","APOAPSIS":"541.076","MEAN_ANOMALY":"322.8280","MEAN_MOTION_DDOT":"0.0000000000000","TLE_LINE2":"2 51145  53.2140  79.7101 0001882  37.2843 322.8280 15.08830468 54719","BSTAR":"0.00030548000000","DECAY_DATE":null,"RA_OF_ASC_NODE":"79.7101","TLE_LINE1":"1 51145U 22005AT  23012.90011408  .00004576  00000-0  30548-3 0  9991","RCS_SIZE":"MEDIUM","EPHEMERIS_TYPE":"0","OBJECT_ID":"2022-005AT","MEAN_ELEMENT_THEORY":"SGP4","EPOCH":"2023-01-12T21:36:09.856512","ECCENTRICITY":"0.00018820","TIME_SYSTEM":"UTC","LAUNCH_DATE":"2022-01-19","REV_AT_EPOCH":"5471","INCLINATION":"53.2140","CLASSIFICATION_TYPE":"U","OBJECT_NAME":"STARLINK-3365","ARG_OF_PERICENTER":"37.2843","COUNTRY_CODE":"US","CENTER_NAME":"EARTH","FILE":"3742227","NORAD_CAT_ID":"51145","OBJECT_TYPE":"PAYLOAD","PERIAPSIS":"538.473","SEMIMAJOR_AXIS":"6917.910","MEAN_MOTION":"15.08830468","GP_ID":"222891515"},{"OBJECT_NAME":"STARLINK-3354","COUNTRY_CODE":"US","ARG_OF_PERICENTER":"27.6475","CENTER_NAME":"EARTH","OBJECT_TYPE":"PAYLOAD","FILE":"3742227","NORAD_CAT_ID":"51146","SEMIMAJOR_AXIS":"6917.942","MEAN_MOTION":"15.08819916","PERIAPSIS":"537.843","GP_ID":"222890267","EPOCH":"2023-01-12T09:36:47.491488","MEAN_ELEMENT_THEORY":"SGP4","OBJECT_ID":"2022-005AU","TIME_SYSTEM":"UTC","ECCENTRICITY":"0.00028390","CLASSIFICATION_TYPE":"U","LAUNCH_DATE":"2022-01-19","REV_AT_EPOCH":"5477","INCLINATION":"53.2161","BSTAR":"-0.00033434000000","DECAY_DATE":null,"RA_OF_ASC_NODE":"71.9585","TLE_LINE1":"1 51146U 22005AU  23012.40054967 -.00005603  00000-0 -33434-3 0  9995","EPHEMERIS_TYPE":"0","RCS_SIZE":"LARGE","ELEMENT_SET_NO":"999","SITE":"AFETR","MEAN_MOTION_DOT":"-0.00005603","REF_FRAME":"TEME","APOAPSIS":"541.771","MEAN_ANOMALY":"332.4668","PERIOD":"95.439","MEAN_MOTION_DDOT":"0.0000000000000","TLE_LINE2":"2 51146  53.2161  71.9585 0002839  27.6475 332.4668 15.08819916 54778"},{"TLE_LINE1":"1 51147U 22005AV  23012.90747370 -.00000160  00000-0  80956-5 0  9993","RCS_SIZE":"LARGE","EPHEMERIS_TYPE":"0","DECAY_DATE":null,"BSTAR":"0.00000809560000","RA_OF_ASC_NODE":"79.6822","MEAN_MOTION_DDOT":"0.0000000000000","PERIOD":"95.438","APOAPSIS":"542.104","MEAN_ANOMALY":"340.1113","TLE_LINE2":"2 51147  53.2148  79.6822 0003378  20.0011 340.1113 15.08832841 54712","SITE":"AFETR","ELEMENT_SET_NO":"999","REF_FRAME":"TEME","MEAN_MOTION_DOT":"-0.00000160","PERIAPSIS":"537.430","SEMIMAJOR_AXIS":"6917.902","MEAN_MOTION":"15.08832841","GP_ID":"222890517","ARG_OF_PERICENTER":"20.0011","COUNTRY_CODE":"US","OBJECT_NAME":"STARLINK-3352","NORAD_CAT_ID":"51147","FILE":"3742227","OBJECT_TYPE":"PAYLOAD","CENTER_NAME":"EARTH","LAUNCH_DATE":"2022-01-19","REV_AT_EPOCH":"5471","INCLINATION":"53.2148","CLASSIFICATION_TYPE":"U","OBJECT_ID":"2022-005AV","EPOCH":"2023-01-12T21:46:45.727680","MEAN_ELEMENT_THEORY":"SGP4","TIME_SYSTEM":"UTC","ECCENTRICITY":"0.00033780"},{"PERIAPSIS":"538.037","MEAN_MOTION":"15.08832658","SEMIMAJOR_AXIS":"6917.903","GP_ID":"222890769","OBJECT_NAME":"STARLINK-3359","ARG_OF_PERICENTER":"17.2072","COUNTRY_CODE":"US","CENTER_NAME":"EARTH","NORAD_CAT_ID":"51148","FILE":"3742227","OBJECT_TYPE":"PAYLOAD","LAUNCH_DATE":"2022-01-19","INCLINATION":"53.2163","REV_AT_EPOCH":"5471","CLASSIFICATION_TYPE":"U","OBJECT_ID":"2022-005AW","MEAN_ELEMENT_THEORY":"SGP4","EPOCH":"2023-01-12T21:30:51.716160","TIME_SYSTEM":"UTC","ECCENTRICITY":"0.00025020","TLE_LINE1":"1 51148U 22005AW  23012.89643190 -.00000477  00000-0 -11830-4 0  9993","RCS_SIZE":"LARGE","EPHEMERIS_TYPE":"0","BSTAR":"-0.00001183000000","DECAY_DATE":null,"RA_OF_ASC_NODE":"79.7277","MEAN_ANOMALY":"342.9005","APOAPSIS":"541.499","PERIOD":"95.438","MEAN_MOTION_DDOT":"0.0000000000000","TLE_LINE2":"2 51148  53.2163  79.7277 0002502  17.2072 342.9005 15.08832658 54714","ELEMENT_SET_NO":"999","SITE":"AFETR","MEAN_MOTION_DOT":"-0.00000477","REF_FRAME":"TEME"},{"CLASSIFICATION_TYPE":"U","REV_AT_EPOCH":"5471","LAUNCH_DATE":"2022-01-19","INCLINATION":"53.2168","ECCENTRICITY":"0.00023920","TIME_SYSTEM":"UTC","EPOCH":"2023-01-12T21:25:34.356000","MEAN_ELEMENT_THEORY":"SGP4","OBJECT_ID":"2022-005AX","GP_ID":"222891016","MEAN_MOTION":"15.08832405","SEMIMAJOR_AXIS":"6917.904","PERIAPSIS":"538.114","CENTER_NAME":"EARTH","OBJECT_TYPE":"PAYLOAD","NORAD_CAT_ID":"51149","FILE":"3742227","OBJECT_NAME":"STARLINK-3360","COUNTRY_CODE":"US","ARG_OF_PERICENTER":"28.6373","TLE_LINE2":"2 51149  53.2168  79.7348 0002392  28.6373 331.4750 15.08832405 54716","APOAPSIS":"541.423","MEAN_ANOMALY":"331.4750","PERIOD":"95.438","MEAN_MOTION_DDOT":"0.0000000000000","MEAN_MOTION_DOT":"0.00001081","REF_FRAME":"TEME","ELEMENT_SET_NO":"999","SITE":"AFETR","EPHEMERIS_TYPE":"0","RCS_SIZE":"LARGE","TLE_LINE1":"1 51149U 22005AX  23012.89275875  .00001081  00000-0  86026-4 0  9994","RA_OF_ASC_NODE":"79.7348","BSTAR":"0.00008602600000","DECAY_DATE":null},{"CLASSIFICATION_TYPE":"U","LAUNCH_DATE":"2022-01-19","INCLINATION":"53.2161","REV_AT_EPOCH":"5485","ECCENTRICITY":"0.00026240","TIME_SYSTEM":"UTC","MEAN_ELEMENT_THEORY":"SGP4","EPOCH":"2023-01-12T20:23:16.795680","OBJECT_ID":"2022-005AY","GP_ID":"222889768","MEAN_MOTION":"15.08838778","SEMIMAJOR_AXIS":"6917.884","PERIAPSIS":"537.934","CENTER_NAME":"EARTH","OBJECT_TYPE":"PAYLOAD","NORAD_CAT_ID":"51150","FILE":"3742227","OBJECT_NAME":"STARLINK-3357","COUNTRY_CODE":"US","ARG_OF_PERICENTER":"18.7661","TLE_LINE2":"2 51150  53.2161  69.9481 0002624  18.7661 341.3428 15.08838778 54854","APOAPSIS":"541.564","PERIOD":"95.438","MEAN_ANOMALY":"341.3428","MEAN_MOTION_DDOT":"0.0000000000000","MEAN_MOTION_DOT":"-0.00001964","REF_FRAME":"TEME","ELEMENT_SET_NO":"999","SITE":"AFETR","EPHEMERIS_TYPE":"0","RCS_SIZE":"LARGE","TLE_LINE1":"1 51150U 22005AY  23012.84949995 -.00001964  00000-0 -10529-3 0  9998","RA_OF_ASC_NODE":"69.9481","BSTAR":"-0.00010529000000","DECAY_DATE":null}];
